HIMAWARI-8              
1 40267U 14060A   24019.55459854 -.00000271  00000+0  00000+0 0  9990
2 40267   0.0369 201.3127 0001141  89.6388 167.7819  1.00270367 33948
